OBJECT_NAME,OBJECT_ID,EPOCH,MEAN_MOTION,ECCENTRICITY,INCLINATION,RA_OF_ASC_NODE,ARG_OF_PERICENTER,MEAN_ANOMALY,EPHEMERIS_TYPE,CLASSIFICATION_TYPE,NORAD_CAT_ID,ELEMENT_SET_NO,REV_AT_EPOCH,BSTAR,MEAN_MOTION_DOT,MEAN_MOTION_DDOT
SPAINSAT NG I,2025-021A,2026-07-18T02:02:38.768352,1.00272377,.00002355,0.0198,42.6747,120.2218,192.6389,0,U,62852,999,429,0,.143E-5,0
QZS-6 (MICHIBIKI-6),2025-023A,2026-07-18T02:36:38.656800,1.00274750,.0001849,0.0106,32.4865,81.9866,311.0549,0,U,62876,999,525,0,-.242E-5,0
ZHONGXING-10R,2025-036A,2026-07-18T06:54:28.900800,1.00270916,.00042953,0.0260,173.4295,333.2081,3.5899,0,U,63075,999,527,0,-.36E-5,0
TJS-15,2025-045A,2026-07-16T17:07:37.974144,1.00273452,.0003093,0.3110,85.6500,293.4061,266.7738,0,U,63157,999,505,0,-.276E-5,0
TIANLIAN 2-04,2025-062A,2026-07-17T18:57:10.365984,1.00272480,.0031467,4.2972,273.9995,9.3603,16.5569,0,U,63361,999,491,0,-.143E-5,0
TJS-16,2025-064A,2026-07-17T18:21:44.697024,1.00271118,.0002463,1.1752,81.2699,293.7256,356.6288,0,U,63397,999,469,0,-.115E-5,0
TJS-17,2025-073A,2026-07-17T18:26:14.495712,1.00271108,.0000998,1.1413,82.4327,311.4885,342.7131,0,U,63524,999,459,0,-.8E-6,0
TIANLIAN 2-05,2025-084A,2026-07-18T06:28:46.366176,1.00272654,.00026615,4.3734,279.4820,156.5777,337.5696,0,U,63662,999,469,0,.118E-5,0
TJS-19,2025-097A,2026-07-16T18:31:01.322112,1.00275203,.000411,3.2376,317.9333,252.7576,142.8472,0,U,63924,999,444,0,-.284E-5,0
CHINASAT 3B,2025-106A,2026-07-17T14:37:38.518176,1.00271935,.00040829,0.0292,170.4389,335.6786,176.0262,0,U,64062,999,436,0,-.54E-6,0
SXM-10,2025-122A,2026-07-18T05:10:38.483616,1.00271573,.00017954,0.0188,47.0679,315.2102,255.2338,0,U,64290,999,399,0,-.25E-6,0
COSMOS 2589,2025-131A,2026-07-17T06:53:37.674240,1.00268276,.000101,0.0265,115.1086,69.5553,311.8551,0,U,64467,999,386,0,-.3E-5,0
CHINASAT 9C,2025-132A,2026-07-17T23:58:32.850048,1.00273872,.0003421,0.0150,92.5405,23.1789,271.9070,0,U,64470,999,445,0,-.256E-5,0
MTG-S1,2025-143A,2026-07-18T06:22:46.939584,1.00274473,.00033339,0.5828,345.8632,259.5257,145.9980,0,U,64723,999,373,0,-.15E-6,0
DROR 1,2025-148A,2026-07-18T06:21:47.035872,1.00272675,.00020037,0.0428,239.4437,160.7931,347.2844,0,U,64784,999,360,0,-.42E-6,0
SHIYAN-29,2025-196A,2026-07-17T23:08:38.701248,1.00275892,.00131541,28.8546,18.1469,177.5801,182.5349,0,U,65486,999,318,0,-.287E-5,0
NUSANTARA LIMA (NUSANTARA 5),2025-205A,2026-07-18T03:27:38.745216,1.00271133,.00004154,0.0142,96.0397,69.3252,295.3574,0,U,65588,999,303,0,0,0
TJS-20,2025-238A,2026-07-17T22:07:25.887360,1.00267362,.00037297,5.4013,299.4347,186.9952,203.6247,0,U,66142,999,264,0,.19E-6,0
CMS-03 (GSAT-7R),2025-249B,2026-07-18T04:02:21.780096,1.00269630,.00023917,0.0135,56.5986,61.7527,312.2153,0,U,66311,999,265,0,0,0
VIASAT-3 F2,2025-261A,2026-07-18T06:00:26.580960,1.00272057,.00005696,0.0351,206.6519,6.7692,93.7744,0,U,66454,999,310,0,-.242E-5,0
SHIJIAN-28 (SJ-28),2025-277A,2026-07-18T03:27:14.745024,1.00275412,.00012606,4.4593,271.6400,54.2171,138.7052,0,U,66549,999,246,0,-.367E-5,0
TJS-22,2025-290A,2026-07-12T19:22:52.255200,1.00269739,.0002691,1.4677,286.9097,318.9700,42.0235,0,U,66990,999,228,0,-.5E-7,0
TJS-23,2025-306A,2026-07-17T12:26:24.886176,1.00268127,.00042844,5.5205,297.3264,199.1035,161.0813,0,U,67226,999,219,0,.9E-7,0
FENGYUN 4C,2025-312A,2026-07-13T15:48:28.031328,1.00269440,.00006584,0.0385,175.3203,48.7481,77.5697,0,U,67246,999,204,0,-.328E-5,0
SHIJIAN-29A (SJ-29A),2025-315A,2026-07-18T02:46:51.554208,1.00272862,.00049534,3.4748,94.3652,51.2097,265.2323,0,U,67302,999,192,0,-.77E-6,0
SHIJIAN-29B (SJ-29B),2025-315C,2026-07-18T04:12:21.567168,1.00273140,.00051296,3.4739,94.3569,54.0837,283.8510,0,U,67403,999,199,0,-.78E-6,0
ELEKTRO-L 5,2026-028A,2026-07-17T23:12:29.470464,1.00271857,.00020771,0.2040,326.3173,176.0737,217.6039,0,U,67756,999,155,0,-.106E-5,0
JAM-E JAM 1,2026-028B,2026-07-17T16:51:27.937152,1.00275419,.00015828,0.2016,314.2078,318.7938,309.4336,0,U,67757,999,142,0,.147E-5,0
ECHOSTAR 25,2026-045A,2026-07-18T04:08:55.658688,1.00270986,.00017459,0.0184,57.0876,53.0758,138.0362,0,U,68126,999,130,0,-.65E-6,0
TJS-24,2026-116A,2026-07-18T07:13:00.228576,1.00273996,.00003231,0.0853,94.3860,159.8210,240.4314,0,U,69235,999,54,0,-.24E-5,0
