SPAINSAT NG I           
1 62852U 25021A   26199.08517093  .00000143  00000+0  00000+0 0  9999
2 62852   0.0198  42.6747 0000235 120.2218 192.6389  1.00272377  4291
QZS-6 (MICHIBIKI-6)     
1 62876U 25023A   26199.10878075 -.00000242  00000+0  00000+0 0  9991
2 62876   0.0106  32.4865 0001849  81.9866 311.0549  1.00274750  5257
ZHONGXING-10R           
1 63075U 25036A   26199.28783450 -.00000360  00000+0  00000+0 0  9999
2 63075   0.0260 173.4295 0004295 333.2081   3.5899  1.00270916  5276
TJS-15                  
1 63157U 25045A   26197.71363396 -.00000276  00000+0  00000+0 0  9995
2 63157   0.3110  85.6500 0003093 293.4061 266.7738  1.00273452  5056
TIANLIAN 2-04           
1 63361U 25062A   26198.78970331 -.00000143  00000+0  00000+0 0  9995
2 63361   4.2972 273.9995 0031467   9.3603  16.5569  1.00272480  4911
TJS-16                  
1 63397U 25064A   26198.76510066 -.00000115  00000+0  00000+0 0  9998
2 63397   1.1752  81.2699 0002463 293.7256 356.6288  1.00271118  4698
TJS-17                  
1 63524U 25073A   26198.76822333 -.00000080  00000+0  00000+0 0  9994
2 63524   1.1413  82.4327 0000998 311.4885 342.7131  1.00271108  4593
TIANLIAN 2-05           
1 63662U 25084A   26199.26998109  .00000118  00000+0  00000+0 0  9991
2 63662   4.3734 279.4820 0002661 156.5777 337.5696  1.00272654  4696
TJS-19                  
1 63924U 25097A   26197.77154308 -.00000284  00000+0  00000+0 0  9990
2 63924   3.2376 317.9333 0004110 252.7576 142.8472  1.00275203  4446
CHINASAT 3B             
1 64062U 25106A   26198.60947359 -.00000054  00000+0  00000+0 0  9999
2 64062   0.0292 170.4389 0004082 335.6786 176.0262  1.00271935  4362
SXM-10                  
1 64290U 25122A   26199.21572319 -.00000025  00000+0  00000+0 0  9996
2 64290   0.0188  47.0679 0001795 315.2102 255.2338  1.00271573  3994
COSMOS 2589             
1 64467U 25131A   26198.28724160 -.00000300  00000+0  00000+0 0  9997
2 64467   0.0265 115.1086 0001010  69.5553 311.8551  1.00268276  3862
CHINASAT 9C             
1 64470U 25132A   26198.99899132 -.00000256  00000+0  00000+0 0  9992
2 64470   0.0150  92.5405 0003421  23.1789 271.9070  1.00273872  4453
MTG-S1                  
1 64723U 25143A   26199.26582106 -.00000015  00000+0  00000+0 0  9999
2 64723   0.5828 345.8632 0003333 259.5257 145.9980  1.00274473  3732
DROR 1                  
1 64784U 25148A   26199.26512773 -.00000042  00000+0  00000+0 0  9994
2 64784   0.0428 239.4437 0002003 160.7931 347.2844  1.00272675  3600
SHIYAN-29               
1 65486U 25196A   26198.96433682 -.00000287  00000+0  00000+0 0  9995
2 65486  28.8546  18.1469 0013154 177.5801 182.5349  1.00275892  3184
NUSANTARA LIMA (NUSANT*)
1 65588U 25205A   26199.14419844  .00000000  00000+0  00000+0 0  9996
2 65588   0.0142  96.0397 0000415  69.3252 295.3574  1.00271133  3031
TJS-20                  
1 66142U 25238A   26198.92182740  .00000019  00000+0  00000+0 0  9996
2 66142   5.4013 299.4347 0003729 186.9952 203.6247  1.00267362  2646
CMS-03 (GSAT-7R)        
1 66311U 25249B   26199.16830764  .00000000  00000+0  00000+0 0  9999
2 66311   0.0135  56.5986 0002391  61.7527 312.2153  1.00269630  2657
VIASAT-3 F2             
1 66454U 25261A   26199.25030765 -.00000242  00000+0  00000+0 0  9993
2 66454   0.0351 206.6519 0000569   6.7692  93.7744  1.00272057  3107
SHIJIAN-28 (SJ-28)      
1 66549U 25277A   26199.14392066 -.00000367  00000+0  00000+0 0  9996
2 66549   4.4593 271.6400 0001260  54.2171 138.7052  1.00275412  2466
TJS-22                  
1 66990U 25290A   26193.80754925 -.00000005  00000+0  00000+0 0  9993
2 66990   1.4677 286.9097 0002691 318.9700  42.0235  1.00269739  2289
TJS-23                  
1 67226U 25306A   26198.51834359  .00000009  00000+0  00000+0 0  9990
2 67226   5.5205 297.3264 0004284 199.1035 161.0813  1.00268127  2190
FENGYUN 4C              
1 67246U 25312A   26194.65865777 -.00000328  00000+0  00000+0 0  9993
2 67246   0.0385 175.3203 0000658  48.7481  77.5697  1.00269440  2048
SHIJIAN-29A (SJ-29A)    
1 67302U 25315A   26199.11587447 -.00000077  00000+0  00000+0 0  9991
2 67302   3.4748  94.3652 0004953  51.2097 265.2323  1.00272862  1923
SHIJIAN-29B (SJ-29B)    
1 67403U 25315C   26199.17524962 -.00000078  00000+0  00000+0 0  9993
2 67403   3.4739  94.3569 0005129  54.0837 283.8510  1.00273140  1992
ELEKTRO-L 5             
1 67756U 26028A   26198.96700776 -.00000106  00000+0  00000+0 0  9993
2 67756   0.2040 326.3173 0002077 176.0737 217.6039  1.00271857  1551
JAM-E JAM 1             
1 67757U 26028B   26198.70240668  .00000147  00000+0  00000+0 0  9999
2 67757   0.2016 314.2078 0001582 318.7938 309.4336  1.00275419  1427
ECHOSTAR 25             
1 68126U 26045A   26199.17286642 -.00000065  00000+0  00000+0 0  9993
2 68126   0.0184  57.0876 0001745  53.0758 138.0362  1.00270986  1306
TJS-24                  
1 69235U 26116A   26199.30069709 -.00000240  00000+0  00000+0 0  9997
2 69235   0.0853  94.3860 0000323 159.8210 240.4314  1.00273996   541
